{"type": "FeatureCollection", "features": [ {"type": "Feature", "properties": {"norad_id": 43622, "name": "BEIDOU-3 M13 (C32)", "group": "beidou", "lat": -56.476677228997765, "lon": -19.714727003374097, "alt_km": 21519.274598819087, "timestamp": "2025-12-17T09:00:17.413640+00:00", "meta": {"OBJECT_NAME": "BEIDOU-3 M13 (C32)", "OBJECT_ID": "2018-072A", "EPOCH": "2025-12-15T21:31:53.202720", "MEAN_MOTION": 1.86231028, "ECCENTRICITY": 0.00060178, "INCLINATION": 56.4622, "RA_OF_ASC_NODE": 68.7153, "ARG_OF_PERICENTER": 299.0223, "MEAN_ANOMALY": 60.938, "EPHEMERIS_TYPE": 0, "CLASSIFICATION_TYPE": "U", "NORAD_CAT_ID": 43622, "ELEMENT_SET_NO": 999, "REV_AT_EPOCH": 4924, "BSTAR": 0, "MEAN_MOTION_DOT": -8.2e-07, "MEAN_MOTION_DDOT": 0}, "tle": {"line1": "1 43622U 18072A   25349.89714355 -.00000082  00000+0  00000+0 0  9999", "line2": "2 43622  56.4622  68.7153 0006017 299.0223  60.9380  1.86231028 49241"}}, "geometry": {"type": "Point", "coordinates": [-19.714727003374097, -56.476677228997765]}}, {"type": "Feature", "properties": {"norad_id": 43623, "name": "BEIDOU-3 M14 (C33)", "group": "beidou", "lat": 0.9601284089203402, "lon": 69.30764807410364, "alt_km": 21520.015986767594, "timestamp": "2025-12-17T09:00:17.413651+00:00", "meta": {"OBJECT_NAME": "BEIDOU-3 M14 (C33)", "OBJECT_ID": "2018-072B", "EPOCH": "2025-12-14T16:31:43.622976", "MEAN_MOTION": 1.86230968, "ECCENTRICITY": 0.00033007, "INCLINATION": 56.4633, "RA_OF_ASC_NODE": 68.7492, "ARG_OF_PERICENTER": 334.4118, "MEAN_ANOMALY": 25.5906, "EPHEMERIS_TYPE": 0, "CLASSIFICATION_TYPE": "U", "NORAD_CAT_ID": 43623, "ELEMENT_SET_NO": 999, "REV_AT_EPOCH": 4921, "BSTAR": 0, "MEAN_MOTION_DOT": -8.3e-07, "MEAN_MOTION_DDOT": 0}, "tle": {"line1": "1 43623U 18072B   25348.68869934 -.00000083  00000+0  00000+0 0  9991", "line2": "2 43623  56.4633  68.7492 0003300 334.4118  25.5906  1.86230968 49219"}}, "geometry": {"type": "Point", "coordinates": [69.30764807410364, 0.9601284089203402]}}, {"type": "Feature", "properties": {"norad_id": 43647, "name": "BEIDOU-3 M16 (C35)", "group": "beidou", "lat": -51.75746803483801, "lon": -167.7383274623591, "alt_km": 21544.9402387692, "timestamp": "2025-12-17T09:00:17.413662+00:00", "meta": {"OBJECT_NAME": "BEIDOU-3 M16 (C35)", "OBJECT_ID": "2018-078A", "EPOCH": "2025-12-16T10:58:34.332384", "MEAN_MOTION": 1.86232417, "ECCENTRICITY": 0.00072794, "INCLINATION": 54.2586, "RA_OF_ASC_NODE": 306.3912, "ARG_OF_PERICENTER": 19.6101, "MEAN_ANOMALY": 340.4043, "EPHEMERIS_TYPE": 0, "CLASSIFICATION_TYPE": "U", "NORAD_CAT_ID": 43647, "ELEMENT_SET_NO": 999, "REV_AT_EPOCH": 4875, "BSTAR": 0, "MEAN_MOTION_DOT": -9.5e-07, "MEAN_MOTION_DDOT": 0}, "tle": {"line1": "1 43647U 18078A   25350.45734181 -.00000095  00000+0  00000+0 0  9999", "line2": "2 43647  54.2586 306.3912 0007279  19.6101 340.4043  1.86232417 48759"}}, "geometry": {"type": "Point", "coordinates": [-167.7383274623591, -51.75746803483801]}}, {"type": "Feature", "properties": {"norad_id": 43648, "name": "BEIDOU-3 M15 (C34)", "group": "beidou", "lat": 9.048039145803218, "lon": 119.75481311803047, "alt_km": 21536.163200426217, "timestamp": "2025-12-17T09:00:17.413673+00:00", "meta": {"OBJECT_NAME": "BEIDOU-3 M15 (C34)", "OBJECT_ID": "2018-078B", "EPOCH": "2025-12-16T14:04:39.514944", "MEAN_MOTION": 1.86232061, "ECCENTRICITY": 0.00038021, "INCLINATION": 54.2541, "RA_OF_ASC_NODE": 306.3868, "ARG_OF_PERICENTER": 19.0085, "MEAN_ANOMALY": 340.9923, "EPHEMERIS_TYPE": 0, "CLASSIFICATION_TYPE": "U", "NORAD_CAT_ID": 43648, "ELEMENT_SET_NO": 999, "REV_AT_EPOCH": 4877, "BSTAR": 0, "MEAN_MOTION_DOT": -9.5e-07, "MEAN_MOTION_DDOT": 0}, "tle": {"line1": "1 43648U 18078B   25350.58656846 -.00000095  00000+0  00000+0 0  9995", "line2": "2 43648  54.2541 306.3868 0003802  19.0085 340.9923  1.86232061 48773"}}, "geometry": {"type": "Point", "coordinates": [119.75481311803047, 9.048039145803218]}}, {"type": "Feature", "properties": {"norad_id": 43683, "name": "BEIDOU-3 G1 (C59)", "group": "beidou", "lat": -2.5599181238609523, "lon": 1.3455638457093506, "alt_km": 35793.076185451675, "timestamp": "2025-12-17T09:00:17.413685+00:00", "meta": {"OBJECT_NAME": "BEIDOU-3 G1 (C59)", "OBJECT_ID": "2018-085A", "EPOCH": "2025-12-16T20:52:18.558336", "MEAN_MOTION": 1.0026972, "ECCENTRICITY": 0.00016308, "INCLINATION": 2.618, "RA_OF_ASC_NODE": 102.847, "ARG_OF_PERICENTER": 50.3145, "MEAN_ANOMALY": 25.7215, "EPHEMERIS_TYPE": 0, "CLASSIFICATION_TYPE": "U", "NORAD_CAT_ID": 43683, "ELEMENT_SET_NO": 999, "REV_AT_EPOCH": 2623, "BSTAR": 0, "MEAN_MOTION_DOT": -2.55e-06, "MEAN_MOTION_DDOT": 0}, "tle": {"line1": "1 43683U 18085A   25350.86965924 -.00000255  00000+0  00000+0 0  9991", "line2": "2 43683   2.6180 102.8470 0001630  50.3145  25.7215  1.00269720 26235"}}, "geometry": {"type": "Point", "coordinates": [1.3455638457093506, -2.5599181238609523]}}, {"type": "Feature", "properties": {"norad_id": 43706, "name": "BEIDOU-3 M17 (C36)", "group": "beidou", "lat": 45.91797833558431, "lon": -123.26231640843181, "alt_km": 21529.920044718023, "timestamp": "2025-12-17T09:00:17.413696+00:00", "meta": {"OBJECT_NAME": "BEIDOU-3 M17 (C36)", "OBJECT_ID": "2018-093A", "EPOCH": "2025-12-15T07:56:44.520576", "MEAN_MOTION": 1.86228523, "ECCENTRICITY": 0.00061371, "INCLINATION": 54.1729, "RA_OF_ASC_NODE": 188.5337, "ARG_OF_PERICENTER": 307.6759, "MEAN_ANOMALY": 184.25, "EPHEMERIS_TYPE": 0, "CLASSIFICATION_TYPE": "U", "NORAD_CAT_ID": 43706, "ELEMENT_SET_NO": 999, "REV_AT_EPOCH": 4811, "BSTAR": 0, "MEAN_MOTION_DOT": 1.13e-06, "MEAN_MOTION_DDOT": 0}, "tle": {"line1": "1 43706U 18093A   25349.33107084  .00000113  00000+0  00000+0 0  9993", "line2": "2 43706  54.1729 188.5337 0006137 307.6759 184.2500  1.86228523 48110"}}, "geometry": {"type": "Point", "coordinates": [-123.26231640843181, 45.91797833558431]}}, {"type": "Feature", "properties": {"norad_id": 43707, "name": "BEIDOU-3 M18 (C37)", "group": "beidou", "lat": 19.823859853584498, "lon": -6.638569701325036, "alt_km": 21542.833185417603, "timestamp": "2025-12-17T09:00:17.413707+00:00", "meta": {"OBJECT_NAME": "BEIDOU-3 M18 (C37)", "OBJECT_ID": "2018-093B", "EPOCH": "2025-12-14T23:54:02.185632", "MEAN_MOTION": 1.86226745, "ECCENTRICITY": 0.00063121, "INCLINATION": 54.1734, "RA_OF_ASC_NODE": 188.5369, "ARG_OF_PERICENTER": 353.2198, "MEAN_ANOMALY": 6.8394, "EPHEMERIS_TYPE": 0, "CLASSIFICATION_TYPE": "U", "NORAD_CAT_ID": 43707, "ELEMENT_SET_NO": 999, "REV_AT_EPOCH": 4810, "BSTAR": 0, "MEAN_MOTION_DOT": 1.11e-06, "MEAN_MOTION_DDOT": 0}, "tle": {"line1": "1 43707U 18093B   25348.99585863  .00000111  00000+0  00000+0 0  9998", "line2": "2 43707  54.1734 188.5369 0006312 353.2198   6.8394  1.86226745 48104"}}, "geometry": {"type": "Point", "coordinates": [-6.638569701325036, 19.823859853584498]}}, {"type": "Feature", "properties": {"norad_id": 44204, "name": "BEIDOU-3 IGSO-1 (C38)", "group": "beidou", "lat": -50.801949915175285, "lon": -9.259045123499428, "alt_km": 35766.22481938119, "timestamp": "2025-12-17T09:00:17.413719+00:00", "meta": {"OBJECT_NAME": "BEIDOU-3 IGSO-1 (C38)", "OBJECT_ID": "2019-023A", "EPOCH": "2025-11-19T14:15:02.708640", "MEAN_MOTION": 1.00252177, "ECCENTRICITY": 0.0026966, "INCLINATION": 58.4003, "RA_OF_ASC_NODE": 39.8168, "ARG_OF_PERICENTER": 221.2202, "MEAN_ANOMALY": 126.9723, "EPHEMERIS_TYPE": 0, "CLASSIFICATION_TYPE": "U", "NORAD_CAT_ID": 44204, "ELEMENT_SET_NO": 999, "REV_AT_EPOCH": 510, "BSTAR": 0, "MEAN_MOTION_DOT": -2.26e-06, "MEAN_MOTION_DDOT": 0}, "tle": {"line1": "1 44204U 19023A   25323.59378135 -.00000226  00000+0  00000+0 0  9994", "line2": "2 44204  58.4003  39.8168 0026966 221.2202 126.9723  1.00252177  5102"}}, "geometry": {"type": "Point", "coordinates": [-9.259045123499428, -50.801949915175285]}}, {"type": "Feature", "properties": {"norad_id": 44231, "name": "BEIDOU-2 G8 (C01)", "group": "beidou", "lat": -1.5519905325758985, "lon": 5.806012116827908, "alt_km": 35756.65424078422, "timestamp": "2025-12-17T09:00:17.413735+00:00", "meta": {"OBJECT_NAME": "BEIDOU-2 G8 (C01)", "OBJECT_ID": "2019-027A", "EPOCH": "2025-12-16T20:53:33.437760", "MEAN_MOTION": 1.00267152, "ECCENTRICITY": 0.00087571, "INCLINATION": 1.6722, "RA_OF_ASC_NODE": 74.7225, "ARG_OF_PERICENTER": 258.6076, "MEAN_ANOMALY": 210.2511, "EPHEMERIS_TYPE": 0, "CLASSIFICATION_TYPE": "U", "NORAD_CAT_ID": 44231, "ELEMENT_SET_NO": 999, "REV_AT_EPOCH": 2425, "BSTAR": 0, "MEAN_MOTION_DOT": -2.26e-06, "MEAN_MOTION_DDOT": 0}, "tle": {"line1": "1 44231U 19027A   25350.87052590 -.00000226  00000+0  00000+0 0  9993", "line2": "2 44231   1.6722  74.7225 0008757 258.6076 210.2511  1.00267152 24251"}}, "geometry": {"type": "Point", "coordinates": [5.806012116827908, -1.5519905325758985]}}, {"type": "Feature", "properties": {"norad_id": 44337, "name": "BEIDOU-3 IGSO-2 (C39)", "group": "beidou", "lat": -0.16919253481659868, "lon": -19.43613358644881, "alt_km": 35641.29174551805, "timestamp": "2025-12-17T09:00:17.413746+00:00", "meta": {"OBJECT_NAME": "BEIDOU-3 IGSO-2 (C39)", "OBJECT_ID": "2019-035A", "EPOCH": "2025-12-16T20:46:49.083168", "MEAN_MOTION": 1.00270089, "ECCENTRICITY": 0.00374411, "INCLINATION": 55.2266, "RA_OF_ASC_NODE": 160.465, "ARG_OF_PERICENTER": 202.4261, "MEAN_ANOMALY": 154.0265, "EPHEMERIS_TYPE": 0, "CLASSIFICATION_TYPE": "U", "NORAD_CAT_ID": 44337, "ELEMENT_SET_NO": 999, "REV_AT_EPOCH": 2383, "BSTAR": 0, "MEAN_MOTION_DOT": -3.9e-07, "MEAN_MOTION_DDOT": 0}, "tle": {"line1": "1 44337U 19035A   25350.86584587 -.00000039  00000+0  00000+0 0  9996", "line2": "2 44337  55.2266 160.4650 0037441 202.4261 154.0265  1.00270089 23833"}}, "geometry": {"type": "Point", "coordinates": [-19.43613358644881, -0.16919253481659868]}}]}